LEMUR-2-PETERG          
1 42841U 17042S   26068.48235713  .00023240  00000+0  81076-3 0  9993
2 42841  97.3980 253.6596 0003700 341.6938  18.4169 15.29611459473171
STARLINK-34331          
1 64204U 25117B   26068.30197446  .00023801  00000+0  81344-3 0  9994
2 64204  53.1615  41.5976 0001375  77.5931 282.5224 15.30187866 44467
